{
  "links" : {
    "next" : "https://api.nasa.gov/neo/rest/v1/neo/browse?page=30&size=20&api_key=jqAGvNAwUIBu4fl9FSOjdm3V4F7hIglRzI6pdX9d",
    "prev" : "https://api.nasa.gov/neo/rest/v1/neo/browse?page=28&size=20&api_key=jqAGvNAwUIBu4fl9FSOjdm3V4F7hIglRzI6pdX9d",
    "self" : "https://api.nasa.gov/neo/rest/v1/neo/browse?page=29&size=20&api_key=jqAGvNAwUIBu4fl9FSOjdm3V4F7hIglRzI6pdX9d"
  },
  "page" : {
    "size" : 20,
    "total_elements" : 20750,
    "total_pages" : 1038,
    "number" : 29
  },
  "near_earth_objects" : [ {
    "links" : {
      "self" : "https://api.nasa.gov/neo/rest/v1/neo/3358521?api_key=jqAGvNAwUIBu4fl9FSOjdm3V4F7hIglRzI6pdX9d"
    },
    "neo_reference_id" : "3358521",
    "name" : "(2006 VF13)",
    "designation" : "2006 VF13",
    "nasa_jpl_url" : "http://ssd.jpl.nasa.gov/sbdb.cgi?sstr=3358521",
    "absolute_magnitude_h" : 23.2,
    "estimated_diameter" : {
      "kilometers" : {
        "estimated_diameter_min" : 0.0608912622,
        "estimated_diameter_max" : 0.1361570015
      },
      "meters" : {
        "estimated_diameter_min" : 60.8912622106,
        "estimated_diameter_max" : 136.1570015386
      },
      "miles" : {
        "estimated_diameter_min" : 0.0378360645,
        "estimated_diameter_max" : 0.0846040122
      },
      "feet" : {
        "estimated_diameter_min" : 199.7744887109,
        "estimated_diameter_max" : 446.7093369279
      }
    },
    "is_potentially_hazardous_asteroid" : false,
    "close_approach_data" : [ {
      "close_approach_date" : "2006-11-15",
      "epoch_date_close_approach" : 1163577600000,
      "relative_velocity" : {
        "kilometers_per_second" : "13.745757117",
        "kilometers_per_hour" : "49484.7256212731",
        "miles_per_hour" : "30747.8840950627"
      },
      "miss_distance" : {
        "astronomical" : "0.0406454628",
        "lunar" : "15.8110847473",
        "kilometers" : "6080474.5",
        "miles" : "3778231.75"
      },
      "orbiting_body" : "Earth"
    } ],
    "orbital_data" : {
      "orbit_id" : "7",
      "orbit_determination_date" : "2017-04-06 09:07:39",
      "first_observation_date" : "2006-11-13",
      "last_observation_date" : "2006-11-18",
      "data_arc_in_days" : 5,
      "observations_used" : 11,
      "orbit_uncertainty" : "9",
      "minimum_orbit_intersection" : ".0122803",
      "jupiter_tisserand_invariant" : "4.828",
      "epoch_osculation" : "2454054.5",
      "eccentricity" : ".2501001236161604",
      "semi_major_axis" : "1.320728027401148",
      "inclination" : "24.40450087620045",
      "ascending_node_longitude" : "235.5742674088252",
      "orbital_period" : "554.3939958069166",
      "perihelion_distance" : ".9904137844847931",
      "perihelion_argument" : "161.2399009799623",
      "aphelion_distance" : "1.651042270317503",
      "perihelion_time" : "2454038.547872783880",
      "mean_anomaly" : "10.35863635111099",
      "mean_motion" : ".649357681942465",
      "equinox" : "J2000",
      "orbit_class" : {
        "orbit_class_type" : "APO",
        "orbit_class_range" : "a (semi-major axis) > 1.0 AU; q (perihelion) < 1.017 AU",
        "orbit_class_description" : "Near-Earth asteroid orbits which cross the Earth’s orbit similar to that of 1862 Apollo"
      }
    },
    "is_sentry_object" : false
  }, {
    "links" : {
      "self" : "https://api.nasa.gov/neo/rest/v1/neo/3359096?api_key=jqAGvNAwUIBu4fl9FSOjdm3V4F7hIglRzI6pdX9d"
    },
    "neo_reference_id" : "3359096",
    "name" : "(2006 WX)",
    "designation" : "2006 WX",
    "nasa_jpl_url" : "http://ssd.jpl.nasa.gov/sbdb.cgi?sstr=3359096",
    "absolute_magnitude_h" : 25.1,
    "estimated_diameter" : {
      "kilometers" : {
        "estimated_diameter_min" : 0.0253837029,
        "estimated_diameter_max" : 0.0567596853
      },
      "meters" : {
        "estimated_diameter_min" : 25.3837029364,
        "estimated_diameter_max" : 56.7596852866
      },
      "miles" : {
        "estimated_diameter_min" : 0.0157726969,
        "estimated_diameter_max" : 0.0352688224
      },
      "feet" : {
        "estimated_diameter_min" : 83.279867942,
        "estimated_diameter_max" : 186.2194458756
      }
    },
    "is_potentially_hazardous_asteroid" : false,
    "close_approach_data" : [ {
      "close_approach_date" : "2006-11-16",
      "epoch_date_close_approach" : 1163664000000,
      "relative_velocity" : {
        "kilometers_per_second" : "9.9427377813",
        "kilometers_per_hour" : "35793.8560126039",
        "miles_per_hour" : "22240.9101429427"
      },
      "miss_distance" : {
        "astronomical" : "0.0132746298",
        "lunar" : "5.1638307571",
        "kilometers" : "1985856.375",
        "miles" : "1233953.875"
      },
      "orbiting_body" : "Earth"
    }, {
      "close_approach_date" : "2010-09-03",
      "epoch_date_close_approach" : 1283497200000,
      "relative_velocity" : {
        "kilometers_per_second" : "20.3248055909",
        "kilometers_per_hour" : "73169.3001271684",
        "miles_per_hour" : "45464.5576262397"
      },
      "miss_distance" : {
        "astronomical" : "0.4053358343",
        "lunar" : "157.6756439209",
        "kilometers" : "60637380",
        "miles" : "37678320"
      },
      "orbiting_body" : "Earth"
    } ],
    "orbital_data" : {
      "orbit_id" : "11",
      "orbit_determination_date" : "2017-04-06 09:07:36",
      "first_observation_date" : "2006-11-18",
      "last_observation_date" : "2006-11-27",
      "data_arc_in_days" : 9,
      "observations_used" : 40,
      "orbit_uncertainty" : "7",
      "minimum_orbit_intersection" : ".00167166",
      "jupiter_tisserand_invariant" : "3.184",
      "epoch_osculation" : "2458600.5",
      "eccentricity" : ".6048061160480258",
      "semi_major_axis" : "2.480856867133375",
      "inclination" : "8.718264583046881",
      "ascending_node_longitude" : "231.9645846359114",
      "orbital_period" : "1427.25308195013",
      "perihelion_distance" : ".9804194608513651",
      "perihelion_argument" : "166.1977319464388",
      "aphelion_distance" : "3.981294273415384",
      "perihelion_time" : "2458332.816005267707",
      "mean_anomaly" : "67.51867578520513",
      "mean_motion" : ".2522327711551433",
      "equinox" : "J2000",
      "orbit_class" : {
        "orbit_class_type" : "APO",
        "orbit_class_range" : "a (semi-major axis) > 1.0 AU; q (perihelion) < 1.017 AU",
        "orbit_class_description" : "Near-Earth asteroid orbits which cross the Earth’s orbit similar to that of 1862 Apollo"
      }
    },
    "is_sentry_object" : false
  }, {
    "links" : {
      "self" : "https://api.nasa.gov/neo/rest/v1/neo/3359271?api_key=jqAGvNAwUIBu4fl9FSOjdm3V4F7hIglRzI6pdX9d"
    },
    "neo_reference_id" : "3359271",
    "name" : "(2006 WU1)",
    "designation" : "2006 WU1",
    "nasa_jpl_url" : "http://ssd.jpl.nasa.gov/sbdb.cgi?sstr=3359271",
    "absolute_magnitude_h" : 22.8,
    "estimated_diameter" : {
      "kilometers" : {
        "estimated_diameter_min" : 0.0732073989,
        "estimated_diameter_max" : 0.1636967205
      },
      "meters" : {
        "estimated_diameter_min" : 73.2073989347,
        "estimated_diameter_max" : 163.696720474
      },
      "miles" : {
        "estimated_diameter_min" : 0.0454889547,
        "estimated_diameter_max" : 0.1017163949
      },
      "feet" : {
        "estimated_diameter_min" : 240.181762721,
        "estimated_diameter_max" : 537.0627483999
      }
    },
    "is_potentially_hazardous_asteroid" : false,
    "close_approach_data" : [ {
      "close_approach_date" : "2006-10-22",
      "epoch_date_close_approach" : 1161500400000,
      "relative_velocity" : {
        "kilometers_per_second" : "8.1156205825",
        "kilometers_per_hour" : "29216.234097129",
        "miles_per_hour" : "18153.8316810744"
      },
      "miss_distance" : {
        "astronomical" : "0.1706803996",
        "lunar" : "66.3946762085",
        "kilometers" : "25533426",
        "miles" : "15865735"
      },
      "orbiting_body" : "Earth"
    } ],
    "orbital_data" : {
      "orbit_id" : "7",
      "orbit_determination_date" : "2017-04-06 09:07:36",
      "first_observation_date" : "2006-11-19",
      "last_observation_date" : "2006-11-27",
      "data_arc_in_days" : 8,
      "observations_used" : 15,
      "orbit_uncertainty" : "9",
      "minimum_orbit_intersection" : ".14292",
      "jupiter_tisserand_invariant" : "3.433",
      "epoch_osculation" : "2454060.5",
      "eccentricity" : ".5091656694807595",
      "semi_major_axis" : "2.253016021338226",
      "inclination" : "7.475310212045758",
      "ascending_node_longitude" : "60.13100269416675",
      "orbital_period" : "1235.221513143591",
      "perihelion_distance" : "1.105857610482671",
      "perihelion_argument" : "311.0788644199577",
      "aphelion_distance" : "3.400174432193781",
      "perihelion_time" : "2454018.957697812910",
      "mean_anomaly" : "12.1073253891862",
      "mean_motion" : ".2914457011712934",
      "equinox" : "J2000",
      "orbit_class" : {
        "orbit_class_type" : "AMO",
        "orbit_class_range" : "1.017 AU < q (perihelion) < 1.3 AU",
        "orbit_class_description" : "Near-Earth asteroid orbits similar to that of 1221 Amor"
      }
    },
    "is_sentry_object" : false
  } ]
}